{
  "norad_id": 68324,
  "name": "STARLINK-37164",
  "history": [
    {
      "epoch": "2026-03-31T16:00:01.999584Z",
      "apogee_km": 328.66893887197966,
      "perigee_km": 327.22310737219414,
      "latitude_deg": -32.19847012269256,
      "longitude_deg": 31.653218067861452,
      "height_km": 338.6591802907731,
      "semi_major_axis_km": 6706.083023122086,
      "eccentricity": 0.0001078,
      "inclination_deg": 53.1594,
      "raan_deg": 252.7255,
      "arg_perigee_deg": 31.267,
      "mean_anomaly_deg": 190.1792,
      "mean_motion_rev_day": 15.80881704
    }
  ]
}